[{"OBJECT_NAME":"STARLINK-1810","OBJECT_ID":"2020-073AR","EPOCH":"2026-03-10T00:00:02.999808","MEAN_MOTION":15.46905484,"ECCENTRICITY":0.00036204,"INCLINATION":53.0474,"RA_OF_ASC_NODE":230.4969,"ARG_OF_PERICENTER":174.4348,"MEAN_ANOMALY":86.5459,"EPHEMERIS_TYPE":0,"CLASSIFICATION_TYPE":"U","NORAD_CAT_ID":46709,"ELEMENT_SET_NO":999,"REV_AT_EPOCH":575,"BSTAR":0.002131862,"MEAN_MOTION_DOT":0.00110175,"MEAN_MOTION_DDOT":0},{"OBJECT_NAME":"OBJECT F","OBJECT_ID":"2023-104F","EPOCH":"2026-03-09T22:45:24.423840","MEAN_MOTION":15.4884614,"ECCENTRICITY":0.00205479,"INCLINATION":97.2662,"RA_OF_ASC_NODE":142.0402,"ARG_OF_PERICENTER":45.1611,"MEAN_ANOMALY":315.1305,"EPHEMERIS_TYPE":0,"CLASSIFICATION_TYPE":"U","NORAD_CAT_ID":57429,"ELEMENT_SET_NO":999,"REV_AT_EPOCH":14709,"BSTAR":0.00056008218,"MEAN_MOTION_DOT":0.00030376,"MEAN_MOTION_DDOT":0}]
